{
    "CCSDS_OMM_VERS": "3.0",
    "COMMENT": "GENERATED VIA SPACE-TRACK.ORG API",
    "CREATION_DATE": "2025-05-21T17:16:54",
    "ORIGINATOR": "18 SPCS",
    "OBJECT_NAME": "GALILEO 29 (10C)",
    "OBJECT_ID": "2024-079A",
    "CENTER_NAME": "EARTH",
    "REF_FRAME": "TEME",
    "TIME_SYSTEM": "UTC",
    "MEAN_ELEMENT_THEORY": "SGP4",
    "EPOCH": "2025-05-21T05:15:45.205344",
    "MEAN_MOTION": "1.70474251",
    "ECCENTRICITY": "0.00027180",
    "INCLINATION": "54.8811",
    "RA_OF_ASC_NODE": "112.0453",
    "ARG_OF_PERICENTER": "262.4045",
    "MEAN_ANOMALY": "242.7002",
    "EPHEMERIS_TYPE": "0",
    "CLASSIFICATION_TYPE": "U",
    "NORAD_CAT_ID": "59598",
    "ELEMENT_SET_NO": "999",
    "REV_AT_EPOCH": "663",
    "BSTAR": "0.00000000000000",
    "MEAN_MOTION_DOT": "0.00000061",
    "MEAN_MOTION_DDOT": "0.0000000000000",
    "SEMIMAJOR_AXIS": "29600.291",
    "PERIOD": "844.702",
    "APOAPSIS": "23230.201",
    "PERIAPSIS": "23214.111",
    "OBJECT_TYPE": "PAYLOAD",
    "RCS_SIZE": "LARGE",
    "COUNTRY_CODE": "ESA",
    "LAUNCH_DATE": "2024-04-28",
    "SITE": "AFETR",
    "DECAY_DATE": null,
    "FILE": "4735227",
    "GP_ID": "288101995",
    "TLE_LINE0": "0 GALILEO 29 (10C)",
    "TLE_LINE1": "1 59598U 24079A   25141.21927321  .00000061  00000-0  00000-0 0  9995",
    "TLE_LINE2": "2 59598  54.8811 112.0453 0002718 262.4045 242.7002  1.70474251  6635"
}